{
  "id": 807162735,
  "type": "Feature",
  "properties": {
    "addr:city":"Lac Du Flambeau",
    "addr:full":"603 Peace Pipe Rd Lac Du Flambeau, Wi 54538",
    "addr:house_number":"603",
    "addr:housenumber":"603",
    "addr:phone":"+1 715-588-3333",
    "addr:postcode":"54538",
    "addr:road":"Peace Pipe Rd",
    "addr:state":"WI",
    "addr:street":"Peace Pipe Rd",
    "edtf:cessation":"uuuu",
    "edtf:inception":"uuuu",
    "geom:area":0.0,
    "geom:bbox":"-89.8938,45.96966,-89.8938,45.96966",
    "geom:latitude":45.96966,
    "geom:longitude":-89.8938,
    "iso:country":"US",
    "mz:hierarchy_label":1,
    "mz:is_current":1,
    "sg:address":"603 Peace Pipe Rd",
    "sg:city":"Lac Du Flambeau",
    "sg:classifiers":[
        {
            "category":"Museum",
            "subcategory":"",
            "type":"Entertainment"
        }
    ],
    "sg:owner":"simplegeo",
    "sg:phone":"+1 715 588 3333",
    "sg:postcode":"54538",
    "sg:province":"WI",
    "src:geom":"mudf",
    "wof:airports":[
        102529969
    ],
    "wof:belongsto":[],
    "wof:breaches":[],
    "wof:concordances":{
        "mudf:mid":8405500094,
        "sg:id":"SG_1TBpReDTuYSQFAO0Rf60JF_45.970314_-89.892878@1294253271"
    },
    "wof:country":"US",
    "wof:created":1462604405,
    "wof:geomhash":"692233b6a2b83926ada53b9751b881ce",
    "wof:hierarchy":[],
    "wof:id":807162735,
    "wof:lastmodified":1534535365,
    "wof:name":"George W Brown Jrojibwe",
    "wof:parent_id":-1,
    "wof:placetype":"venue",
    "wof:repo":"whosonfirst-data-venue-us-wi",
    "wof:superseded_by":[],
    "wof:supersedes":[],
    "wof:tags":[]
},
  "bbox": [
    -89.8938,
    45.96966,
    -89.8938,
    45.96966
],
  "geometry": {"coordinates":[-89.8938,45.96966],"type":"Point"}
}